NORAD_CAT_ID,OBJECT_NAME,OBJECT_TYPE,EPOCH,MEAN_MOTION,ECCENTRICITY,INCLINATION,RA_OF_ASC_NODE,ARG_OF_PERICENTER,MEAN_ANOMALY,BSTAR,MEAN_MOTION_DOT,MEAN_MOTION_DDOT,TLE_LINE0,TLE_LINE1,TLE_LINE2,SEMIMAJOR_AXIS,PERIOD,APOGEE,PERIGEE,DECAYED
52121.0,STARLINK-3678,PAYLOAD,2024-07-03 12:33:03,15.08827288,9.97e-05,53.2149,306.2278,82.2779,277.8326,5.6199e-05,6.06e-06,0.0,0 STARLINK-3678,1 52121U 22029AK  24185.52295471  .00000606  00000-0  56199-4 0  9997,2 52121  53.2149 306.2278 0000997  82.2779 277.8326 15.08827288128202,6917.919,95.438,540.474,539.095,0.0
52121.0,STARLINK-3678,PAYLOAD,2024-07-03 15:43:48,15.08841316,0.0001067,53.216,305.6293,85.6614,274.45,8.614e-05,1.083e-05,0.0,0 STARLINK-3678,1 52121U 22029AK  24185.65542787  .00001083  00000-0  86140-4 0  9995,2 52121  53.2160 305.6293 0001067  85.6614 274.4500 15.08841316128226,6917.876,95.437,540.48,539.003,0.0
52121.0,STARLINK-3678,PAYLOAD,2024-07-04 12:23:50,15.08837892,0.0001154,53.2168,301.7631,111.8321,248.2793,0.00018216,2.612e-05,0.0,0 STARLINK-3678,1 52121U 22029AK  24186.51655143  .00002612  00000-0  18216-3 0  9999,2 52121  53.2168 301.7631 0001154 111.8321 248.2793 15.08837892128352,6917.887,95.438,540.55,538.954,0.0
52121.0,STARLINK-3678,PAYLOAD,2024-07-04 13:59:13,15.08839864,0.0001113,53.2165,301.4645,102.206,257.9057,-2.7997e-05,-7.33e-06,0.0,0 STARLINK-3678,1 52121U 22029AK  24186.58279058 -.00000733  00000-0 -27997-4 0  9994,2 52121  53.2165 301.4645 0001113 102.2060 257.9057 15.08839864128362,6917.881,95.438,540.516,538.976,0.0
52121.0,STARLINK-3678,PAYLOAD,2024-07-05 01:06:54,15.0885077,0.0001377,53.2185,299.3836,101.0443,259.0705,0.00015603,2.197e-05,0.0,0 STARLINK-3678,1 52121U 22029AK  24187.04646548  .00002197  00000-0  15603-3 0  9992,2 52121  53.2185 299.3836 0001377 101.0443 259.0705 15.08850770128435,6917.847,95.437,540.665,538.76,0.0
52121.0,STARLINK-3678,PAYLOAD,2024-07-05 13:50:00,15.08841273,0.0001362,53.2179,297.0063,106.2248,253.8894,0.0002685,3.988e-05,0.0,0 STARLINK-3678,1 52121U 22029AK  24187.57639073  .00003988  00000-0  26850-3 0  9990,2 52121  53.2179 297.0063 0001362 106.2248 253.8894 15.08841273128517,6917.876,95.437,540.684,538.799,0.0
52121.0,STARLINK-3678,PAYLOAD,2024-07-06 13:40:47,15.08836127,0.0001059,53.2165,292.5452,91.3511,268.7602,4.6009e-05,4.44e-06,0.0,0 STARLINK-3678,1 52121U 22029AK  24188.56999198  .00000444  00000-0  46009-4 0  9990,2 52121  53.2165 292.5452 0001059  91.3511 268.7602 15.08836127128664,6917.892,95.438,540.49,539.025,0.0
52121.0,STARLINK-3678,PAYLOAD,2024-07-07 10:20:48,15.08836802,0.0001526,53.2171,288.6783,99.7538,260.3626,1.3389e-05,-7.5e-07,0.0,0 STARLINK-3678,1 52121U 22029AK  24189.43111404 -.00000075  00000-0  13389-4 0  9999,2 52121  53.2171 288.6783 0001526  99.7538 260.3626 15.08836802128792,6917.89,95.438,540.811,538.699,0.0
52121.0,STARLINK-3678,PAYLOAD,2024-07-08 13:22:21,15.08836685,0.0001278,53.2164,283.6269,88.1583,271.9556,0.00011392,1.525e-05,0.0,0 STARLINK-3678,1 52121U 22029AK  24190.55719312  .00001525  00000-0  11392-3 0  9997,2 52121  53.2164 283.6269 0001278  88.1583 271.9556 15.08836685128962,6917.891,95.438,540.64,538.871,0.0
52121.0,STARLINK-3678,PAYLOAD,2024-07-08 21:19:16,15.08848423,0.000128,53.2162,282.1388,88.0034,272.1105,0.00017609,2.516e-05,0.0,0 STARLINK-3678,1 52121U 22029AK  24190.88838397  .00002516  00000-0  17609-3 0  9996,2 52121  53.2162 282.1388 0001280  88.0034 272.1105 15.08848423129012,6917.855,95.437,540.605,538.834,0.0
52121.0,STARLINK-3678,PAYLOAD,2024-07-08 22:54:39,15.08851048,0.0001311,53.216,281.8422,88.6642,271.45,0.00020927,3.045e-05,0.0,0 STARLINK-3678,1 52121U 22029AK  24190.95462193  .00003045  00000-0  20927-3 0  9996,2 52121  53.2160 281.8422 0001311  88.6642 271.4500 15.08851048129020,6917.847,95.437,540.619,538.805,0.0
52121.0,STARLINK-3678,PAYLOAD,2024-07-09 13:13:09,15.08831003,0.0001483,53.2173,279.169,104.7313,255.3843,6.585e-05,7.6e-06,0.0,0 STARLINK-3678,1 52121U 22029AK  24191.55080095  .00000760  00000-0  65850-4 0  9996,2 52121  53.2173 279.1690 0001483 104.7313 255.3843 15.08831003129116,6917.908,95.438,540.799,538.747,0.0
52121.0,STARLINK-3678,PAYLOAD,2024-07-10 11:28:32,15.08840668,0.0001438,53.2182,275.0062,102.2747,257.8406,0.00011072,1.475e-05,0.0,0 STARLINK-3678,1 52121U 22029AK  24192.47815644  .00001475  00000-0  11072-3 0  9994,2 52121  53.2182 275.0062 0001438 102.2747 257.8406 15.08840668129252,6917.878,95.438,540.738,538.749,0.0
52121.0,STARLINK-3678,PAYLOAD,2024-07-10 14:39:18,15.0883984,0.0001547,53.2173,274.4115,107.1586,252.9575,7.5349e-05,9.11e-06,0.0,0 STARLINK-3678,1 52121U 22029AK  24192.61063490  .00000911  00000-0  75349-4 0  9996,2 52121  53.2173 274.4115 0001547 107.1586 252.9575 15.08839840129275,6917.881,95.438,540.816,538.676,0.0
52121.0,STARLINK-3678,PAYLOAD,2024-07-11 12:54:42,15.08843467,0.0001368,53.2162,270.2462,88.1043,272.0106,0.00018314,2.628e-05,0.0,0 STARLINK-3678,1 52121U 22029AK  24193.53799503  .00002628  00000-0  18314-3 0  9994,2 52121  53.2162 270.2462 0001368  88.1043 272.0106 15.08843467129418,6917.87,95.437,540.681,538.788,0.0
52121.0,STARLINK-3678,PAYLOAD,2024-07-12 11:10:06,15.08841269,0.0001351,53.2159,266.0824,90.4728,269.6419,7.5501e-05,9.14e-06,0.0,0 STARLINK-3678,1 52121U 22029AK  24194.46535624  .00000914  00000-0  75501-4 0  9997,2 52121  53.2159 266.0824 0001351  90.4728 269.6419 15.08841269129559,6917.877,95.437,540.676,538.807,0.0
52121.0,STARLINK-3678,PAYLOAD,2024-07-12 22:17:48,15.08848048,0.0001367,53.216,264.0008,90.006,270.1089,0.00017381,2.48e-05,0.0,0 STARLINK-3678,1 52121U 22029AK  24194.92903233  .00002480  00000-0  17381-3 0  9994,2 52121  53.2160 264.0008 0001367  90.0060 270.1089 15.08848048129625,6917.856,95.437,540.666,538.775,0.0
52121.0,STARLINK-3678,PAYLOAD,2024-07-13 11:00:53,15.08843713,0.0001571,53.2163,261.6193,105.1954,254.9212,2.1012e-05,4.6e-07,0.0,0 STARLINK-3678,1 52121U 22029AK  24195.45895515  .00000046  00000-0  21012-4 0  9999,2 52121  53.2163 261.6193 0001571 105.1954 254.9212 15.08843713129704,6917.869,95.437,540.821,538.647,0.0
52121.0,STARLINK-3678,PAYLOAD,2024-07-14 04:30:08,15.08843428,0.0001728,53.2176,258.3486,105.638,254.4802,0.0001235,1.678e-05,0.0,0 STARLINK-3678,1 52121U 22029AK  24196.18759326  .00001678  00000-0  12350-3 0  9995,2 52121  53.2176 258.3486 0001728 105.6380 254.4802 15.08843428129813,6917.87,95.437,540.93,538.54,0.0
52121.0,STARLINK-3678,PAYLOAD,2024-07-14 10:51:40,15.08839036,0.0001563,53.217,257.162,98.5232,261.5937,8.2165e-05,1.02e-05,0.0,0 STARLINK-3678,1 52121U 22029AK  24196.45255687  .00001020  00000-0  82165-4 0  9999,2 52121  53.2170 257.1620 0001563  98.5232 261.5937 15.08839036129859,6917.883,95.438,540.83,538.667,0.0
52121.0,STARLINK-3678,PAYLOAD,2024-07-15 10:42:28,15.0883644,0.0001372,53.2161,252.7,93.9537,266.1612,8.1021e-05,1.002e-05,0.0,0 STARLINK-3678,1 52121U 22029AK  24197.44615825  .00001002  00000-0  81021-4 0  9993,2 52121  53.2161 252.7000 0001372  93.9537 266.1612 15.08836440130003,6917.891,95.438,540.705,538.807,0.0
52121.0,STARLINK-3678,PAYLOAD,2024-07-15 20:14:46,15.08843456,0.0001364,53.2162,250.9147,91.7251,268.3898,8.2996e-05,1.033e-05,0.0,0 STARLINK-3678,1 52121U 22029AK  24197.84359298  .00001033  00000-0  82996-4 0  9992,2 52121  53.2162 250.9147 0001364  91.7251 268.3898 15.08843456130067,6917.87,95.437,540.678,538.791,0.0
52121.0,STARLINK-3678,PAYLOAD,2024-07-16 08:57:52,15.08835199,0.000147,53.2174,248.5415,97.6085,262.5074,4.7344e-05,4.66e-06,0.0,0 STARLINK-3678,1 52121U 22029AK  24198.37352051  .00000466  00000-0  47344-4 0  9998,2 52121  53.2174 248.5415 0001470  97.6085 262.5074 15.08835199130145,6917.895,95.438,540.777,538.743,0.0
52121.0,STARLINK-3678,PAYLOAD,2024-07-17 10:24:03,15.08827446,0.0001318,53.2169,243.7794,82.1182,277.9959,3.3397e-05,2.44e-06,0.0,0 STARLINK-3678,1 52121U 22029AK  24199.43336914  .00000244  00000-0  33397-4 0  9993,2 52121  53.2169 243.7794 0001318  82.1182 277.9959 15.08827446130300,6917.919,95.438,540.696,538.872,0.0
52121.0,STARLINK-3678,PAYLOAD,2024-07-18 11:50:12,15.08841927,0.0001386,53.216,239.0192,88.8233,271.2918,0.00012796,1.749e-05,0.0,0 STARLINK-3678,1 52121U 22029AK  24200.49320217  .00001749  00000-0  12796-3 0  9991,2 52121  53.2160 239.0192 0001386  88.8233 271.2918 15.08841927130465,6917.874,95.437,540.698,538.781,0.0
52121.0,STARLINK-3678,PAYLOAD,2024-07-19 10:05:36,15.08841813,0.0001333,53.2158,234.8564,87.0925,273.0219,0.00017136,2.44e-05,0.0,0 STARLINK-3678,1 52121U 22029AK  24201.42056315  .00002440  00000-0  17136-3 0  9992,2 52121  53.2158 234.8564 0001333  87.0925 273.0219 15.08841813130603,6917.875,95.437,540.662,538.818,0.0
52121.0,STARLINK-3678,PAYLOAD,2024-07-19 19:37:55,15.08845629,0.0001349,53.216,233.0724,86.9267,273.1879,0.00013751,1.902e-05,0.0,0 STARLINK-3678,1 52121U 22029AK  24201.81799994  .00001902  00000-0  13751-3 0  9993,2 52121  53.2160 233.0724 0001349  86.9267 273.1879 15.08845629130667,6917.863,95.437,540.661,538.795,0.0
52121.0,STARLINK-3678,PAYLOAD,2024-07-20 08:21:00,15.08842619,0.0001472,53.2165,230.6931,94.0002,266.1158,3.436e-05,2.59e-06,0.0,0 STARLINK-3678,1 52121U 22029AK  24202.34792346  .00000259  00000-0  34360-4 0  9990,2 52121  53.2165 230.6931 0001472  94.0002 266.1158 15.08842619130746,6917.872,95.437,540.756,538.719,0.0
52121.0,STARLINK-3678,PAYLOAD,2024-07-20 19:28:42,15.08847625,0.0001481,53.2167,228.6118,93.3877,266.7284,4.5653e-05,4.39e-06,0.0,0 STARLINK-3678,1 52121U 22029AK  24202.81159907  .00000439  00000-0  45653-4 0  9999,2 52121  53.2167 228.6118 0001481  93.3877 266.7284 15.08847625130810,6917.857,95.437,540.747,538.698,0.0
52121.0,STARLINK-3678,PAYLOAD,2024-07-21 11:22:34,15.08839898,0.000157,53.2175,225.6385,96.3753,263.7418,1.3785e-05,-6.9e-07,0.0,0 STARLINK-3678,1 52121U 22029AK  24203.47400478 -.00000069  00000-0  13785-4 0  9995,2 52121  53.2175 225.6385 0001570  96.3753 263.7418 15.08839898130917,6917.881,95.438,540.832,538.66,0.0
